start=new Date('2023-05-06T00:00:00.000Z').valueOf();
sats=[{"REV_AT_EPOCH":"19219","MEAN_ELEMENT_THEORY":"SGP4","OBJECT_TYPE":"PAYLOAD","INCLINATION":"53.0526","TIME_SYSTEM":"UTC","ARG_OF_PERICENTER":"84.1408","GP_ID":"231245754","PERIOD":"95.592","RCS_SIZE":"LARGE","FILE":"3901010","SEMIMAJOR_AXIS":"6925.359","SITE":"AFETR","BSTAR":"0.00039263000000","MEAN_MOTION_DOT":"0.00005571","EPOCH":"2023-05-04T20:54:18.731232","MEAN_MOTION_DDOT":"0.0000000000000","ECCENTRICITY":"0.00013310","TLE_LINE2":"2 44713  53.0526 174.5408 0001331  84.1408 275.9733 15.06396702192191","MEAN_MOTION":"15.06396702","TLE_LINE1":"1 44713U 19074A   23124.87105013  .00005571  00000-0  39263-3 0  9991","COUNTRY_CODE":"US","OBJECT_NAME":"STARLINK-1007","DECAY_DATE":null,"LAUNCH_DATE":"2019-11-11","REF_FRAME":"TEME","PERIAPSIS":"546.302","EPHEMERIS_TYPE":"0","CENTER_NAME":"EARTH","APOAPSIS":"548.145","NORAD_CAT_ID":"44713","OBJECT_ID":"2019-074A","MEAN_ANOMALY":"275.9733","CLASSIFICATION_TYPE":"U","RA_OF_ASC_NODE":"174.5408","ELEMENT_SET_NO":"999"},{"EPHEMERIS_TYPE":"0","CENTER_NAME":"EARTH","APOAPSIS":"548.048","CLASSIFICATION_TYPE":"U","MEAN_ANOMALY":"256.1871","NORAD_CAT_ID":"44714","OBJECT_ID":"2019-074B","RA_OF_ASC_NODE":"173.1529","ELEMENT_SET_NO":"999","COUNTRY_CODE":"US","OBJECT_NAME":"STARLINK-1008","DECAY_DATE":null,"REF_FRAME":"TEME","LAUNCH_DATE":"2019-11-11","PERIAPSIS":"546.399","GP_ID":"231279113","PERIOD":"95.592","RCS_SIZE":"LARGE","FILE":"3901300","SEMIMAJOR_AXIS":"6925.358","MEAN_MOTION_DDOT":"0.0000000000000","EPOCH":"2023-05-05T04:21:30.937248","SITE":"AFETR","MEAN_MOTION_DOT":"0.00004422","BSTAR":"0.00031558000000","ECCENTRICITY":"0.00011900","MEAN_MOTION":"15.06396763","TLE_LINE2":"2 44714  53.0523 173.1529 0001190 103.9250 256.1871 15.06396763192243","TLE_LINE1":"1 44714U 19074B   23125.18160807  .00004422  00000-0  31558-3 0  9992","REV_AT_EPOCH":"19224","MEAN_ELEMENT_THEORY":"SGP4","OBJECT_TYPE":"PAYLOAD","INCLINATION":"53.0523","ARG_OF_PERICENTER":"103.9250","TIME_SYSTEM":"UTC"},{"REV_AT_EPOCH":"19223","MEAN_ELEMENT_THEORY":"SGP4","INCLINATION":"53.0527","OBJECT_TYPE":"PAYLOAD","ARG_OF_PERICENTER":"103.9616","TIME_SYSTEM":"UTC","PERIOD":"95.592","GP_ID":"231279074","EPOCH":"2023-05-05T04:05:35.418048","MEAN_MOTION_DDOT":"0.0000000000000","BSTAR":"0.00034668000000","SITE":"AFETR","MEAN_MOTION_DOT":"0.00004886","RCS_SIZE":"LARGE","FILE":"3901300","SEMIMAJOR_AXIS":"6925.347","MEAN_MOTION":"15.06400421","TLE_LINE2":"2 44715  53.0527 173.2009 0001197 103.9616 256.1506 15.06400421192236","TLE_LINE1":"1 44715U 19074C   23125.17054882  .00004886  00000-0  34668-3 0  9996","ECCENTRICITY":"0.00011970","OBJECT_NAME":"STARLINK-1009","COUNTRY_CODE":"US","REF_FRAME":"TEME","LAUNCH_DATE":"2019-11-11","DECAY_DATE":null,"PERIAPSIS":"546.383","CENTER_NAME":"EARTH","EPHEMERIS_TYPE":"0","CLASSIFICATION_TYPE":"U","MEAN_ANOMALY":"256.1506","NORAD_CAT_ID":"44715","OBJECT_ID":"2019-074C","APOAPSIS":"548.041","RA_OF_ASC_NODE":"173.2009","ELEMENT_SET_NO":"999"},{"TLE_LINE1":"1 44716U 19074D   23125.85245323  .00005270  00000-0  37249-3 0  9990","TLE_LINE2":"2 44716  53.0524 170.1407 0001181  93.0525 267.0599 15.06392474192324","MEAN_MOTION":"15.06392474","ECCENTRICITY":"0.00011810","MEAN_MOTION_DOT":"0.00005270","SITE":"AFETR","BSTAR":"0.00037249000000","MEAN_MOTION_DDOT":"0.0000000000000","EPOCH":"2023-05-05T20:27:31.959072","FILE":"3901854","RCS_SIZE":"LARGE","SEMIMAJOR_AXIS":"6925.372","PERIOD":"95.593","GP_ID":"231292109","TIME_SYSTEM":"UTC","ARG_OF_PERICENTER":"93.0525","INCLINATION":"53.0524","OBJECT_TYPE":"PAYLOAD","MEAN_ELEMENT_THEORY":"SGP4","REV_AT_EPOCH":"19232","ELEMENT_SET_NO":"999","RA_OF_ASC_NODE":"170.1407","NORAD_CAT_ID":"44716","OBJECT_ID":"2019-074D","MEAN_ANOMALY":"267.0599","CLASSIFICATION_TYPE":"U","APOAPSIS":"548.055","CENTER_NAME":"EARTH","EPHEMERIS_TYPE":"0","PERIAPSIS":"546.419","LAUNCH_DATE":"2019-11-11","REF_FRAME":"TEME","DECAY_DATE":null,"OBJECT_NAME":"STARLINK-1010","COUNTRY_CODE":"US"},{"CENTER_NAME":"EARTH","EPHEMERIS_TYPE":"0","CLASSIFICATION_TYPE":"U","MEAN_ANOMALY":"292.2081","NORAD_CAT_ID":"44717","OBJECT_ID":"2019-074E","APOAPSIS":"547.951","ELEMENT_SET_NO":"999","RA_OF_ASC_NODE":"196.1017","OBJECT_NAME":"STARLINK-1011","COUNTRY_CODE":"US","REF_FRAME":"TEME","LAUNCH_DATE":"2019-11-11","DECAY_DATE":null,"PERIAPSIS":"546.498","PERIOD":"95.592","GP_ID":"231234322","EPOCH":"2023-05-04T12:34:04.987776","MEAN_MOTION_DDOT":"0.0000000000000","BSTAR":"0.00027684000000","SITE":"AFETR","MEAN_MOTION_DOT":"0.00003844","FILE":"3900892","RCS_SIZE":"LARGE","SEMIMAJOR_AXIS":"6925.359","TLE_LINE1":"1 44717U 19074E   23124.52366884  .00003844  00000-0  27684-3 0  9997","TLE_LINE2":"2 44717  53.0530 196.1017 0001049  67.9019 292.2081 15.06396446191696","MEAN_MOTION":"15.06396446","ECCENTRICITY":"0.00010490","MEAN_ELEMENT_THEORY":"SGP4","REV_AT_EPOCH":"19169","INCLINATION":"53.0530","OBJECT_TYPE":"PAYLOAD","ARG_OF_PERICENTER":"67.9019","TIME_SYSTEM":"UTC"},{"ELEMENT_SET_NO":"999","RA_OF_ASC_NODE":"173.2461","MEAN_ANOMALY":"269.4468","CLASSIFICATION_TYPE":"U","OBJECT_ID":"2019-074F","NORAD_CAT_ID":"44718","APOAPSIS":"547.924","CENTER_NAME":"EARTH","EPHEMERIS_TYPE":"0","PERIAPSIS":"546.517","REF_FRAME":"TEME","LAUNCH_DATE":"2019-11-11","DECAY_DATE":null,"OBJECT_NAME":"STARLINK-1012","COUNTRY_CODE":"US","TLE_LINE1":"1 44718U 19074F   23125.15948899 -.00000922  00000-0 -43035-4 0  9995","TLE_LINE2":"2 44718  53.0529 173.2461 0001016  90.6637 269.4468 15.06397832192233","MEAN_MOTION":"15.06397832","ECCENTRICITY":"0.00010160","EPOCH":"2023-05-05T03:49:39.848736","MEAN_MOTION_DDOT":"0.0000000000000","MEAN_MOTION_DOT":"-0.00000922","SITE":"AFETR","BSTAR":"-0.00004303500000","RCS_SIZE":"LARGE","FILE":"3901301","SEMIMAJOR_AXIS":"6925.355","PERIOD":"95.592","GP_ID":"231279096","ARG_OF_PERICENTER":"90.6637","TIME_SYSTEM":"UTC","INCLINATION":"53.0529","OBJECT_TYPE":"PAYLOAD","MEAN_ELEMENT_THEORY":"SGP4","REV_AT_EPOCH":"19223"},{"OBJECT_ID":"2019-074G","NORAD_CAT_ID":"44719","MEAN_ANOMALY":"263.9283","CLASSIFICATION_TYPE":"U","APOAPSIS":"548.024","CENTER_NAME":"EARTH","EPHEMERIS_TYPE":"0","ELEMENT_SET_NO":"999","RA_OF_ASC_NODE":"170.2337","LAUNCH_DATE":"2019-11-11","REF_FRAME":"TEME","DECAY_DATE":null,"OBJECT_NAME":"STARLINK-1013","COUNTRY_CODE":"US","PERIAPSIS":"546.399","PERIOD":"95.592","GP_ID":"231291726","TLE_LINE2":"2 44719  53.0520 170.2337 0001173  96.1840 263.9283 15.06400645192337","TLE_LINE1":"1 44719U 19074G   23125.83033507  .00004592  00000-0  32696-3 0  9997","MEAN_MOTION":"15.06400645","ECCENTRICITY":"0.00011730","BSTAR":"0.00032696000000","SITE":"AFETR","MEAN_MOTION_DOT":"0.00004592","EPOCH":"2023-05-05T19:55:40.950048","MEAN_MOTION_DDOT":"0.0000000000000","FILE":"3901822","RCS_SIZE":"LARGE","SEMIMAJOR_AXIS":"6925.347","INCLINATION":"53.0520","OBJECT_TYPE":"PAYLOAD","MEAN_ELEMENT_THEORY":"SGP4","REV_AT_EPOCH":"19233","TIME_SYSTEM":"UTC","ARG_OF_PERICENTER":"96.1840"},{"PERIAPSIS":"546.515","DECAY_DATE":null,"REF_FRAME":"TEME","LAUNCH_DATE":"2019-11-11","COUNTRY_CODE":"US","OBJECT_NAME":"STARLINK-1014","ELEMENT_SET_NO":"999","RA_OF_ASC_NODE":"174.6142","APOAPSIS":"547.932","CLASSIFICATION_TYPE":"U","MEAN_ANOMALY":"256.8185","OBJECT_ID":"2019-074H","NORAD_CAT_ID":"44720","EPHEMERIS_TYPE":"0","CENTER_NAME":"EARTH","ARG_OF_PERICENTER":"103.2918","TIME_SYSTEM":"UTC","OBJECT_TYPE":"PAYLOAD","INCLINATION":"53.0520","MEAN_ELEMENT_THEORY":"SGP4","REV_AT_EPOCH":"19202","ECCENTRICITY":"0.00010230","TLE_LINE1":"1 44720U 19074H   23124.85261661  .00008171  00000-0  56682-3 0  9992","TLE_LINE2":"2 44720  53.0520 174.6142 0001023 103.2918 256.8185 15.06396767192028","MEAN_MOTION":"15.06396767","RCS_SIZE":"LARGE","FILE":"3901186","SEMIMAJOR_AXIS":"6925.358","MEAN_MOTION_DDOT":"0.0000000000000","EPOCH":"2023-05-04T20:27:46.075104","SITE":"AFETR","MEAN_MOTION_DOT":"0.00008171","BSTAR":"0.00056682000000","GP_ID":"231267635","PERIOD":"95.592"},{"MEAN_ANOMALY":"263.9705","CLASSIFICATION_TYPE":"U","NORAD_CAT_ID":"44721","OBJECT_ID":"2019-074J","APOAPSIS":"548.358","CENTER_NAME":"EARTH","EPHEMERIS_TYPE":"0","ELEMENT_SET_NO":"999","RA_OF_ASC_NODE":"171.6943","REF_FRAME":"TEME","LAUNCH_DATE":"2019-11-11","DECAY_DATE":null,"OBJECT_NAME":"STARLINK-1015","COUNTRY_CODE":"US","PERIAPSIS":"546.039","PERIOD":"95.592","GP_ID":"231285522","MEAN_MOTION":"15.06404909","TLE_LINE2":"2 44721  53.0527 171.6943 0001674  96.1475 263.9705 15.06404909192285","TLE_LINE1":"1 44721U 19074J   23125.50597089  .00007788  00000-0  54111-3 0  9990","ECCENTRICITY":"0.00016740","EPOCH":"2023-05-05T12:08:35.884896","MEAN_MOTION_DDOT":"0.0000000000000","SITE":"AFETR","BSTAR":"0.00054111000000","MEAN_MOTION_DOT":"0.00007788","SEMIMAJOR_AXIS":"6925.334","FILE":"3901579","RCS_SIZE":"LARGE","INCLINATION":"53.0527","OBJECT_TYPE":"PAYLOAD","REV_AT_EPOCH":"19228","MEAN_ELEMENT_THEORY":"SGP4","ARG_OF_PERICENTER":"96.1475","TIME_SYSTEM":"UTC"},{"OBJECT_TYPE":"PAYLOAD","INCLINATION":"53.0527","REV_AT_EPOCH":"19234","MEAN_ELEMENT_THEORY":"SGP4","ARG_OF_PERICENTER":"78.6811","TIME_SYSTEM":"UTC","GP_ID":"231291848","PERIOD":"95.593","ECCENTRICITY":"0.00012510","TLE_LINE2":"2 44723  53.0527 170.1243 0001251  78.6811 281.4318 15.06394092192347","TLE_LINE1":"1 44723U 19074L   23125.85613496  .00003746  00000-0  27029-3 0  9999","MEAN_MOTION":"15.06394092","FILE":"3901832","SEMIMAJOR_AXIS":"6925.367","RCS_SIZE":"LARGE","MEAN_MOTION_DDOT":"0.0000000000000","EPOCH":"2023-05-05T20:32:50.060544","SITE":"AFETR","MEAN_MOTION_DOT":"0.00003746","BSTAR":"0.00027029000000","DECAY_DATE":null,"REF_FRAME":"TEME","LAUNCH_DATE":"2019-11-11","COUNTRY_CODE":"US","OBJECT_NAME":"STARLINK-1017","PERIAPSIS":"546.365","APOAPSIS":"548.098","MEAN_ANOMALY":"281.4318","CLASSIFICATION_TYPE":"U","OBJECT_ID":"2019-074L","NORAD_CAT_ID":"44723","EPHEMERIS_TYPE":"0","CENTER_NAME":"EARTH","ELEMENT_SET_NO":"999","RA_OF_ASC_NODE":"170.1243"}];
